NORAD_CAT_ID,OBJECT_NAME,OBJECT_TYPE,EPOCH,MEAN_MOTION,ECCENTRICITY,INCLINATION,RA_OF_ASC_NODE,ARG_OF_PERICENTER,MEAN_ANOMALY,BSTAR,MEAN_MOTION_DOT,MEAN_MOTION_DDOT,TLE_LINE0,TLE_LINE1,TLE_LINE2,SEMIMAJOR_AXIS,PERIOD,APOGEE,PERIGEE,DECAYED
53827.0,STARLINK-4764,PAYLOAD,2023-11-15 21:13:54,15.08838835,7.45e-05,53.2143,136.6553,94.7372,265.3705,7.2818e-05,8.71e-06,0.0,0 STARLINK-4764,1 53827U 22114K   23319.88466299  .00000871  00000-0  72818-4 0  9991,2 53827  53.2143 136.6553 0000745  94.7372 265.3705 15.08838835 65291,6917.884,95.438,540.264,539.234,0.0
53827.0,STARLINK-4764,PAYLOAD,2023-11-16 11:32:23,15.08828155,0.0001027,53.2155,133.9804,103.6263,256.4843,4.0065e-05,3.5e-06,0.0,0 STARLINK-4764,1 53827U 22114K   23320.48083220  .00000350  00000-0  40065-4 0  9999,2 53827  53.2155 133.9804 0001027 103.6263 256.4843 15.08828155 64844,6917.917,95.438,540.492,539.071,0.0
53827.0,STARLINK-4764,PAYLOAD,2023-11-16 17:53:56,15.088289,8.11e-05,53.2126,132.7894,107.9159,252.1922,7.1352e-05,8.48e-06,0.0,0 STARLINK-4764,1 53827U 22114K   23320.74579361  .00000848  00000-0  71352-4 0  9999,2 53827  53.2126 132.7894 0000811 107.9159 252.1922 15.08828900 65423,6917.914,95.438,540.34,539.218,0.0
53827.0,STARLINK-4764,PAYLOAD,2023-11-17 11:23:10,15.08843521,0.0001296,53.2149,129.5195,96.6141,263.4998,0.00032605,4.905e-05,0.0,0 STARLINK-4764,1 53827U 22114K   23321.47443075  .00004905  00000-0  32605-3 0  9997,2 53827  53.2149 129.5195 0001296  96.6141 263.4998 15.08843521 64994,6917.87,95.437,540.631,538.838,0.0
53827.0,STARLINK-4764,PAYLOAD,2023-11-17 17:44:43,15.08845718,0.0001294,53.215,128.33,96.1771,263.9369,0.00032667,4.916e-05,0.0,0 STARLINK-4764,1 53827U 22114K   23321.73939001  .00004916  00000-0  32667-3 0  9995,2 53827  53.2150 128.3300 0001294  96.1771 263.9369 15.08845718 65575,6917.863,95.437,540.623,538.833,0.0
53827.0,STARLINK-4764,PAYLOAD,2023-11-18 11:13:58,15.08833948,0.000131,53.2154,125.06,93.3345,266.7797,6.131e-05,6.88e-06,0.0,0 STARLINK-4764,1 53827U 22114K   23322.46803739  .00000688  00000-0  61310-4 0  9994,2 53827  53.2154 125.0600 0001310  93.3345 266.7797 15.08833948 65142,6917.899,95.438,540.67,538.858,0.0
53827.0,STARLINK-4764,PAYLOAD,2023-11-18 17:35:31,15.08834583,0.0001317,53.2154,123.8704,93.633,266.4813,5.2847e-05,5.53e-06,0.0,0 STARLINK-4764,1 53827U 22114K   23322.73299777  .00000553  00000-0  52847-4 0  9991,2 53827  53.2154 123.8704 0001317  93.6330 266.4813 15.08834583 65723,6917.897,95.438,540.673,538.851,0.0
53827.0,STARLINK-4764,PAYLOAD,2023-11-19 11:04:45,15.08835772,0.0001381,53.2148,120.5991,93.6972,266.4178,-4.689e-05,-1.034e-05,0.0,0 STARLINK-4764,1 53827U 22114K   23323.46163919 -.00001034  00000-0 -46890-4 0  9998,2 53827  53.2148 120.5991 0001381  93.6972 266.4178 15.08835772 65838,6917.893,95.438,540.714,538.803,0.0
53827.0,STARLINK-4764,PAYLOAD,2023-11-19 17:26:18,15.08839907,0.0001247,53.2177,119.411,92.9651,267.1484,-1.3633e-05,-5.05e-06,0.0,0 STARLINK-4764,1 53827U 22114K   23323.72659895 -.00000505  00000-0 -13633-4 0  9991,2 53827  53.2177 119.4110 0001247  92.9651 267.1484 15.08839907 65334,6917.881,95.438,540.608,538.883,0.0
53827.0,STARLINK-4764,PAYLOAD,2023-11-20 14:06:19,15.08835933,0.000112,53.2169,115.5451,91.9558,268.1562,0.00014403,2.005e-05,0.0,0 STARLINK-4764,1 53827U 22114K   23324.58772068  .00002005  00000-0  14403-3 0  9994,2 53827  53.2169 115.5451 0001120  91.9558 268.1562 15.08835933 66003,6917.893,95.438,540.533,538.983,0.0
53827.0,STARLINK-4764,PAYLOAD,2023-11-20 17:17:05,15.08839138,0.0001114,53.2167,114.9505,91.9671,268.1449,0.00016979,2.415e-05,0.0,0 STARLINK-4764,1 53827U 22114K   23324.72019899  .00002415  00000-0  16979-3 0  9991,2 53827  53.2167 114.9505 0001114  91.9671 268.1449 15.08839138 66020,6917.883,95.438,540.519,538.977,0.0
53827.0,STARLINK-4764,PAYLOAD,2023-11-21 02:49:24,15.08835939,0.0001126,53.2167,113.1664,91.0145,269.0977,0.0001163,1.563e-05,0.0,0 STARLINK-4764,1 53827U 22114K   23325.11764270  .00001563  00000-0  11630-3 0  9997,2 53827  53.2167 113.1664 0001126  91.0145 269.0977 15.08835939 65544,6917.893,95.438,540.537,538.979,0.0
53827.0,STARLINK-4764,PAYLOAD,2023-11-21 13:57:06,15.08838072,0.0001121,53.2176,111.0863,91.8271,268.2849,0.00011373,1.523e-05,0.0,0 STARLINK-4764,1 53827U 22114K   23325.58132395  .00001523  00000-0  11373-3 0  9995,2 53827  53.2176 111.0863 0001121  91.8271 268.2849 15.08838072 66153,6917.886,95.438,540.527,538.976,0.0
53827.0,STARLINK-4764,PAYLOAD,2023-11-21 15:32:29,15.08839828,0.0001238,53.2176,110.789,94.792,265.3214,0.00010422,1.371e-05,0.0,0 STARLINK-4764,1 53827U 22114K   23325.64756310  .00001371  00000-0  10422-3 0  9996,2 53827  53.2176 110.7890 0001238  94.7920 265.3214 15.08839828 66166,6917.881,95.438,540.602,538.889,0.0
53827.0,STARLINK-4764,PAYLOAD,2023-11-22 09:01:43,15.08851886,0.0001476,53.2178,107.5181,91.8802,268.236,2.5912e-05,1.25e-06,0.0,0 STARLINK-4764,1 53827U 22114K   23326.37619848  .00000125  00000-0  25912-4 0  9998,2 53827  53.2178 107.5181 0001476  91.8802 268.2360 15.08851886 65730,6917.844,95.437,540.73,538.688,0.0
53827.0,STARLINK-4764,PAYLOAD,2023-11-22 13:47:53,15.08836431,0.0001063,53.2178,106.6259,100.816,259.2951,0.00028121,4.19e-05,0.0,0 STARLINK-4764,1 53827U 22114K   23326.57492279  .00004190  00000-0  28121-3 0  9997,2 53827  53.2178 106.6259 0001063 100.8160 259.2951 15.08836431 66305,6917.891,95.438,540.492,539.021,0.0
53827.0,STARLINK-4764,PAYLOAD,2023-11-22 16:58:38,15.08851774,0.0001247,53.2172,106.0304,92.3315,267.782,0.00019635,2.839e-05,0.0,0 STARLINK-4764,1 53827U 22114K   23326.70739524  .00002839  00000-0  19635-3 0  9997,2 53827  53.2172 106.0304 0001247  92.3315 267.7820 15.08851774 66323,6917.844,95.437,540.572,538.847,0.0
53827.0,STARLINK-4764,PAYLOAD,2023-11-23 13:38:40,15.0883525,0.0001351,53.218,102.1649,87.116,272.9987,1.9917e-05,2.9e-07,0.0,0 STARLINK-4764,1 53827U 22114K   23327.56852643  .00000029  00000-0  19917-4 0  9993,2 53827  53.2180 102.1649 0001351  87.1160 272.9987 15.08835250 66454,6917.895,95.438,540.695,538.825,0.0
53827.0,STARLINK-4764,PAYLOAD,2023-11-23 18:24:49,15.08838654,0.0001398,53.2175,101.2727,86.9108,273.2044,5.277e-05,5.52e-06,0.0,0 STARLINK-4764,1 53827U 22114K   23327.76724528  .00000552  00000-0  52770-4 0  9990,2 53827  53.2175 101.2727 0001398  86.9108 273.2044 15.08838654 65947,6917.885,95.438,540.717,538.782,0.0
53827.0,STARLINK-4764,PAYLOAD,2023-11-24 13:29:28,15.08834127,0.000154,53.2163,97.7052,72.8884,287.2277,1.1666e-05,-1.02e-06,0.0,0 STARLINK-4764,1 53827U 22114K   23328.56213259 -.00000102  00000-0  11666-4 0  9994,2 53827  53.2163  97.7052 0001540  72.8884 287.2277 15.08834127 66606,6917.898,95.438,540.829,538.698,0.0
53827.0,STARLINK-4764,PAYLOAD,2023-11-24 15:04:51,15.08837353,0.0001586,53.2167,97.408,82.2035,277.9137,-8.499e-05,-1.64e-05,0.0,0 STARLINK-4764,1 53827U 22114K   23328.62837069 -.00001640  00000-0 -84990-4 0  9991,2 53827  53.2167  97.4080 0001586  82.2035 277.9137 15.08837353 66617,6917.888,95.438,540.851,538.656,0.0
53827.0,STARLINK-4764,PAYLOAD,2023-11-25 13:20:15,15.08846599,0.0001394,53.2154,93.2448,58.1602,301.9525,0.00030997,4.65e-05,0.0,0 STARLINK-4764,1 53827U 22114K   23329.55573232  .00004650  00000-0  30997-3 0  9992,2 53827  53.2154  93.2448 0001394  58.1602 301.9525 15.08846599 66750,6917.86,95.437,540.69,538.761,0.0
53827.0,STARLINK-4764,PAYLOAD,2023-11-25 14:55:38,15.0885401,0.0001229,53.216,92.9415,87.4662,272.647,0.00052106,8.018e-05,0.0,0 STARLINK-4764,1 53827U 22114K   23329.62196907  .00008018  00000-0  52106-3 0  9998,2 53827  53.2160  92.9415 0001229  87.4662 272.6470 15.08854010 66766,6917.838,95.437,540.553,538.852,0.0
53827.0,STARLINK-4764,PAYLOAD,2023-11-26 11:35:38,15.08856064,0.0001254,53.2157,89.0769,80.6999,279.4135,0.00028163,4.199e-05,0.0,0 STARLINK-4764,1 53827U 22114K   23330.48308282  .00004199  00000-0  28163-3 0  9997,2 53827  53.2157  89.0769 0001254  80.6999 279.4135 15.08856064 66356,6917.831,95.437,540.564,538.829,0.0
53827.0,STARLINK-4764,PAYLOAD,2023-11-26 13:11:01,15.08857232,0.0001313,53.2165,88.7831,64.4818,295.631,0.00033474,5.046e-05,0.0,0 STARLINK-4764,1 53827U 22114K   23330.54932231  .00005046  00000-0  33474-3 0  9994,2 53827  53.2165  88.7831 0001313  64.4818 295.6310 15.08857232 66901,6917.828,95.436,540.601,538.784,0.0
53827.0,STARLINK-4764,PAYLOAD,2023-11-26 17:57:10,15.08863434,0.0001252,53.2166,87.8881,88.5627,271.5508,0.000391,5.944e-05,0.0,0 STARLINK-4764,1 53827U 22114K   23330.74803638  .00005944  00000-0  39100-3 0  9993,2 53827  53.2166  87.8881 0001252  88.5627 271.5508 15.08863434 66930,6917.809,95.436,540.54,538.808,0.0
53827.0,STARLINK-4764,PAYLOAD,2023-11-27 11:26:24,15.08846649,0.0001722,53.2178,84.6109,118.1314,241.9852,-0.0001331,-2.406e-05,0.0,0 STARLINK-4764,1 53827U 22114K   23331.47667566 -.00002406  00000-0 -13310-3 0  9999,2 53827  53.2178  84.6109 0001722 118.1314 241.9852 15.08846649 66501,6917.86,95.437,540.916,538.534,0.0
53827.0,STARLINK-4764,PAYLOAD,2023-11-27 14:37:11,15.08844145,0.0001327,53.2169,84.022,80.8729,279.2413,-0.00011198,-2.07e-05,0.0,0 STARLINK-4764,1 53827U 22114K   23331.60915939 -.00002070  00000-0 -11198-3 0  9993,2 53827  53.2169  84.0220 0001327  80.8729 279.2413 15.08844145 67063,6917.868,95.437,540.651,538.815,0.0
53827.0,STARLINK-4764,PAYLOAD,2023-11-28 11:17:12,15.08833682,0.0001438,53.2182,80.1594,82.6871,277.4284,-0.00019998,-3.469e-05,0.0,0 STARLINK-4764,1 53827U 22114K   23332.47028573 -.00003469  00000-0 -19998-3 0  9997,2 53827  53.2182  80.1594 0001438  82.6871 277.4284 15.08833682 66654,6917.9,95.438,540.759,538.77,0.0
53827.0,STARLINK-4764,PAYLOAD,2023-11-28 14:27:58,15.0883927,0.0001488,53.2191,79.5633,87.2115,272.9048,-5.9785e-05,-1.239e-05,0.0,0 STARLINK-4764,1 53827U 22114K   23332.60276488 -.00001239  00000-0 -59785-4 0  9994,2 53827  53.2191  79.5633 0001488  87.2115 272.9048 15.08839270 67217,6917.883,95.438,540.777,538.718,0.0
